{
  "type": "FeatureCollection",
  "features": [
    {
      "type": "Feature",
      "geometry": {
        "type": "Point",
        "coordinates": [
          54.3773,
          24.4539
        ]
      },
      "properties": {
        "timestamp": "2026-08-15 12:00:00",
        "has_flag": false,
        "flags_summary": "",
        "surface_type": "asphalt",
        "temperature": 48.0,
        "humidity": 27.48,
        "pressure": 1007.02,
        "light": 80441.4,
        "air_quality": 30.7,
        "battery_voltage": 3.9
      }
    },
    {
      "type": "Feature",
      "geometry": {
        "type": "Point",
        "coordinates": [
          54.3777,
          24.4539
        ]
      },
      "properties": {
        "timestamp": "2026-08-15 12:00:05",
        "has_flag": true,
        "flags_summary": "flatline_altitude; flatline_battery_voltage",
        "surface_type": "asphalt",
        "temperature": 48.32,
        "humidity": 29.77,
        "pressure": 1007.21,
        "light": 79881.8,
        "air_quality": 30.0,
        "battery_voltage": 3.9
      }
    },
    {
      "type": "Feature",
      "geometry": {
        "type": "Point",
        "coordinates": [
          54.3781,
          24.4539
        ]
      },
      "properties": {
        "timestamp": "2026-08-15 12:00:10",
        "has_flag": true,
        "flags_summary": "flatline_altitude; flatline_battery_voltage",
        "surface_type": "asphalt",
        "temperature": 48.46,
        "humidity": 27.22,
        "pressure": 1008.32,
        "light": 81331.9,
        "air_quality": 25.7,
        "battery_voltage": 3.9
      }
    },
    {
      "type": "Feature",
      "geometry": {
        "type": "Point",
        "coordinates": [
          54.3785,
          24.4539
        ]
      },
      "properties": {
        "timestamp": "2026-08-15 12:00:15",
        "has_flag": true,
        "flags_summary": "flatline_altitude; flatline_battery_voltage",
        "surface_type": "asphalt",
        "temperature": 47.69,
        "humidity": 28.69,
        "pressure": 1008.96,
        "light": 78490.9,
        "air_quality": 29.9,
        "battery_voltage": 3.9
      }
    },
    {
      "type": "Feature",
      "geometry": {
        "type": "Point",
        "coordinates": [
          54.3789,
          24.4539
        ]
      },
      "properties": {
        "timestamp": "2026-08-15 12:00:20",
        "has_flag": true,
        "flags_summary": "flatline_altitude; flatline_battery_voltage",
        "surface_type": "asphalt",
        "temperature": 48.32,
        "humidity": 32.43,
        "pressure": 1007.63,
        "light": 80764.5,
        "air_quality": 31.8,
        "battery_voltage": 3.9
      }
    },
    {
      "type": "Feature",
      "geometry": {
        "type": "Point",
        "coordinates": [
          54.3793,
          24.4539
        ]
      },
      "properties": {
        "timestamp": "2026-08-15 12:00:25",
        "has_flag": true,
        "flags_summary": "flatline_altitude; flatline_battery_voltage",
        "surface_type": "asphalt",
        "temperature": 47.87,
        "humidity": 31.62,
        "pressure": 1007.19,
        "light": 80571.8,
        "air_quality": 32.4,
        "battery_voltage": 3.9
      }
    },
    {
      "type": "Feature",
      "geometry": {
        "type": "Point",
        "coordinates": [
          54.3773,
          24.4543
        ]
      },
      "properties": {
        "timestamp": "2026-08-15 12:00:30",
        "has_flag": true,
        "flags_summary": "flatline_altitude; flatline_battery_voltage",
        "surface_type": "building",
        "temperature": 43.98,
        "humidity": 30.41,
        "pressure": 1008.35,
        "light": 80667.1,
        "air_quality": 30.6,
        "battery_voltage": 3.9
      }
    },
    {
      "type": "Feature",
      "geometry": {
        "type": "Point",
        "coordinates": [
          54.3777,
          24.4543
        ]
      },
      "properties": {
        "timestamp": "2026-08-15 12:00:35",
        "has_flag": true,
        "flags_summary": "flatline_altitude; flatline_battery_voltage",
        "surface_type": "building",
        "temperature": 44.17,
        "humidity": 28.98,
        "pressure": 1008.68,
        "light": 81846.0,
        "air_quality": 31.7,
        "battery_voltage": 3.9
      }
    },
    {
      "type": "Feature",
      "geometry": {
        "type": "Point",
        "coordinates": [
          54.3781,
          24.4543
        ]
      },
      "properties": {
        "timestamp": "2026-08-15 12:00:40",
        "has_flag": true,
        "flags_summary": "flatline_altitude; flatline_battery_voltage",
        "surface_type": "building",
        "temperature": 43.67,
        "humidity": 28.3,
        "pressure": 1008.81,
        "light": 81383.5,
        "air_quality": 25.1,
        "battery_voltage": 3.9
      }
    },
    {
      "type": "Feature",
      "geometry": {
        "type": "Point",
        "coordinates": [
          54.3785,
          24.4543
        ]
      },
      "properties": {
        "timestamp": "2026-08-15 12:00:45",
        "has_flag": true,
        "flags_summary": "flatline_altitude; flatline_battery_voltage",
        "surface_type": "building",
        "temperature": 44.49,
        "humidity": 27.09,
        "pressure": 1008.92,
        "light": 81604.9,
        "air_quality": 28.6,
        "battery_voltage": 3.9
      }
    },
    {
      "type": "Feature",
      "geometry": {
        "type": "Point",
        "coordinates": [
          54.3789,
          24.4543
        ]
      },
      "properties": {
        "timestamp": "2026-08-15 12:00:50",
        "has_flag": true,
        "flags_summary": "flatline_altitude; flatline_battery_voltage",
        "surface_type": "building",
        "temperature": 43.64,
        "humidity": 31.75,
        "pressure": 1007.38,
        "light": 79236.6,
        "air_quality": 27.2,
        "battery_voltage": 3.9
      }
    },
    {
      "type": "Feature",
      "geometry": {
        "type": "Point",
        "coordinates": [
          54.3793,
          24.4543
        ]
      },
      "properties": {
        "timestamp": "2026-08-15 12:00:55",
        "has_flag": true,
        "flags_summary": "flatline_altitude; flatline_battery_voltage",
        "surface_type": "building",
        "temperature": 44.31,
        "humidity": 30.99,
        "pressure": 1007.29,
        "light": 78995.7,
        "air_quality": 25.8,
        "battery_voltage": 3.9
      }
    },
    {
      "type": "Feature",
      "geometry": {
        "type": "Point",
        "coordinates": [
          54.3773,
          24.4547
        ]
      },
      "properties": {
        "timestamp": "2026-08-15 12:01:00",
        "has_flag": true,
        "flags_summary": "flatline_altitude; flatline_battery_voltage",
        "surface_type": "open",
        "temperature": 40.33,
        "humidity": 28.18,
        "pressure": 1007.13,
        "light": 78712.5,
        "air_quality": 34.0,
        "battery_voltage": 3.9
      }
    },
    {
      "type": "Feature",
      "geometry": {
        "type": "Point",
        "coordinates": [
          54.3777,
          24.4547
        ]
      },
      "properties": {
        "timestamp": "2026-08-15 12:01:05",
        "has_flag": true,
        "flags_summary": "flatline_altitude; flatline_battery_voltage",
        "surface_type": "open",
        "temperature": 39.54,
        "humidity": 31.57,
        "pressure": 1007.33,
        "light": 80781.7,
        "air_quality": 27.0,
        "battery_voltage": 3.9
      }
    },
    {
      "type": "Feature",
      "geometry": {
        "type": "Point",
        "coordinates": [
          54.3781,
          24.4547
        ]
      },
      "properties": {
        "timestamp": "2026-08-15 12:01:10",
        "has_flag": true,
        "flags_summary": "flatline_altitude; flatline_battery_voltage",
        "surface_type": "open",
        "temperature": 39.93,
        "humidity": 28.81,
        "pressure": 1007.25,
        "light": 79880.6,
        "air_quality": 28.9,
        "battery_voltage": 3.9
      }
    },
    {
      "type": "Feature",
      "geometry": {
        "type": "Point",
        "coordinates": [
          54.3785,
          24.4547
        ]
      },
      "properties": {
        "timestamp": "2026-08-15 12:01:15",
        "has_flag": true,
        "flags_summary": "flatline_altitude; flatline_battery_voltage",
        "surface_type": "open",
        "temperature": 40.4,
        "humidity": 31.16,
        "pressure": 1007.6,
        "light": 79998.2,
        "air_quality": 32.2,
        "battery_voltage": 3.9
      }
    },
    {
      "type": "Feature",
      "geometry": {
        "type": "Point",
        "coordinates": [
          54.3789,
          24.4547
        ]
      },
      "properties": {
        "timestamp": "2026-08-15 12:01:20",
        "has_flag": true,
        "flags_summary": "flatline_altitude; flatline_battery_voltage",
        "surface_type": "open",
        "temperature": 39.51,
        "humidity": 31.94,
        "pressure": 1007.61,
        "light": 80482.4,
        "air_quality": 32.7,
        "battery_voltage": 3.9
      }
    },
    {
      "type": "Feature",
      "geometry": {
        "type": "Point",
        "coordinates": [
          54.3793,
          24.4547
        ]
      },
      "properties": {
        "timestamp": "2026-08-15 12:01:25",
        "has_flag": true,
        "flags_summary": "flatline_altitude; flatline_battery_voltage",
        "surface_type": "open",
        "temperature": 39.73,
        "humidity": 29.4,
        "pressure": 1008.03,
        "light": 80253.6,
        "air_quality": 26.6,
        "battery_voltage": 3.9
      }
    },
    {
      "type": "Feature",
      "geometry": {
        "type": "Point",
        "coordinates": [
          54.3773,
          24.4551
        ]
      },
      "properties": {
        "timestamp": "2026-08-15 12:01:30",
        "has_flag": true,
        "flags_summary": "flatline_altitude; flatline_battery_voltage",
        "surface_type": "grass",
        "temperature": 37.27,
        "humidity": 27.52,
        "pressure": 1007.17,
        "light": 81866.6,
        "air_quality": 31.4,
        "battery_voltage": 3.9
      }
    },
    {
      "type": "Feature",
      "geometry": {
        "type": "Point",
        "coordinates": [
          54.3777,
          24.4551
        ]
      },
      "properties": {
        "timestamp": "2026-08-15 12:01:35",
        "has_flag": true,
        "flags_summary": "flatline_altitude; flatline_battery_voltage",
        "surface_type": "grass",
        "temperature": 37.06,
        "humidity": 32.87,
        "pressure": 1008.03,
        "light": 81110.4,
        "air_quality": 25.8,
        "battery_voltage": 3.9
      }
    },
    {
      "type": "Feature",
      "geometry": {
        "type": "Point",
        "coordinates": [
          54.3781,
          24.4551
        ]
      },
      "properties": {
        "timestamp": "2026-08-15 12:01:40",
        "has_flag": true,
        "flags_summary": "flatline_altitude; flatline_battery_voltage",
        "surface_type": "grass",
        "temperature": 37.45,
        "humidity": 32.66,
        "pressure": 1008.09,
        "light": 81696.7,
        "air_quality": 31.3,
        "battery_voltage": 3.9
      }
    },
    {
      "type": "Feature",
      "geometry": {
        "type": "Point",
        "coordinates": [
          54.3785,
          24.4551
        ]
      },
      "properties": {
        "timestamp": "2026-08-15 12:01:45",
        "has_flag": true,
        "flags_summary": "flatline_altitude; flatline_battery_voltage",
        "surface_type": "grass",
        "temperature": 37.42,
        "humidity": 31.87,
        "pressure": 1008.93,
        "light": 78395.7,
        "air_quality": 30.2,
        "battery_voltage": 3.9
      }
    },
    {
      "type": "Feature",
      "geometry": {
        "type": "Point",
        "coordinates": [
          54.3789,
          24.4551
        ]
      },
      "properties": {
        "timestamp": "2026-08-15 12:01:50",
        "has_flag": true,
        "flags_summary": "flatline_altitude; flatline_battery_voltage",
        "surface_type": "grass",
        "temperature": 36.73,
        "humidity": 27.59,
        "pressure": 1008.35,
        "light": 79709.8,
        "air_quality": 26.5,
        "battery_voltage": 3.9
      }
    },
    {
      "type": "Feature",
      "geometry": {
        "type": "Point",
        "coordinates": [
          54.3793,
          24.4551
        ]
      },
      "properties": {
        "timestamp": "2026-08-15 12:01:55",
        "has_flag": true,
        "flags_summary": "flatline_altitude; flatline_battery_voltage",
        "surface_type": "grass",
        "temperature": 36.74,
        "humidity": 31.51,
        "pressure": 1007.99,
        "light": 78898.8,
        "air_quality": 28.7,
        "battery_voltage": 3.9
      }
    },
    {
      "type": "Feature",
      "geometry": {
        "type": "Point",
        "coordinates": [
          54.3773,
          24.4555
        ]
      },
      "properties": {
        "timestamp": "2026-08-15 12:02:00",
        "has_flag": true,
        "flags_summary": "flatline_altitude; flatline_battery_voltage",
        "surface_type": "shaded",
        "temperature": 33.68,
        "humidity": 30.06,
        "pressure": 1007.36,
        "light": 81852.6,
        "air_quality": 29.8,
        "battery_voltage": 3.9
      }
    },
    {
      "type": "Feature",
      "geometry": {
        "type": "Point",
        "coordinates": [
          54.3777,
          24.4555
        ]
      },
      "properties": {
        "timestamp": "2026-08-15 12:02:05",
        "has_flag": true,
        "flags_summary": "flatline_altitude; flatline_battery_voltage",
        "surface_type": "shaded",
        "temperature": 34.2,
        "humidity": 31.93,
        "pressure": 1007.92,
        "light": 78600.3,
        "air_quality": 29.8,
        "battery_voltage": 3.9
      }
    },
    {
      "type": "Feature",
      "geometry": {
        "type": "Point",
        "coordinates": [
          54.3781,
          24.4555
        ]
      },
      "properties": {
        "timestamp": "2026-08-15 12:02:10",
        "has_flag": true,
        "flags_summary": "flatline_altitude; flatline_battery_voltage",
        "surface_type": "shaded",
        "temperature": 33.82,
        "humidity": 27.72,
        "pressure": 1008.29,
        "light": 78810.7,
        "air_quality": 33.6,
        "battery_voltage": 3.9
      }
    },
    {
      "type": "Feature",
      "geometry": {
        "type": "Point",
        "coordinates": [
          54.3785,
          24.4555
        ]
      },
      "properties": {
        "timestamp": "2026-08-15 12:02:15",
        "has_flag": true,
        "flags_summary": "flatline_altitude; flatline_battery_voltage",
        "surface_type": "shaded",
        "temperature": 33.7,
        "humidity": 27.97,
        "pressure": 1007.9,
        "light": 78808.4,
        "air_quality": 34.0,
        "battery_voltage": 3.9
      }
    },
    {
      "type": "Feature",
      "geometry": {
        "type": "Point",
        "coordinates": [
          54.3789,
          24.4555
        ]
      },
      "properties": {
        "timestamp": "2026-08-15 12:02:20",
        "has_flag": true,
        "flags_summary": "flatline_altitude; flatline_battery_voltage",
        "surface_type": "shaded",
        "temperature": 33.78,
        "humidity": 27.06,
        "pressure": 1007.81,
        "light": 80065.3,
        "air_quality": 29.8,
        "battery_voltage": 3.9
      }
    },
    {
      "type": "Feature",
      "geometry": {
        "type": "Point",
        "coordinates": [
          54.3793,
          24.4555
        ]
      },
      "properties": {
        "timestamp": "2026-08-15 12:02:25",
        "has_flag": true,
        "flags_summary": "flatline_altitude; flatline_battery_voltage",
        "surface_type": "shaded",
        "temperature": 34.04,
        "humidity": 31.4,
        "pressure": 1008.26,
        "light": 78032.1,
        "air_quality": 34.5,
        "battery_voltage": 3.9
      }
    }
  ]
}